NORAD_CAT_ID,OBJECT_NAME,OBJECT_TYPE,EPOCH,MEAN_MOTION,ECCENTRICITY,INCLINATION,RA_OF_ASC_NODE,ARG_OF_PERICENTER,MEAN_ANOMALY,BSTAR,MEAN_MOTION_DOT,MEAN_MOTION_DDOT,TLE_LINE0,TLE_LINE1,TLE_LINE2,SEMIMAJOR_AXIS,PERIOD,APOGEE,PERIGEE,DECAYED
54082.0,STARLINK-5210,PAYLOAD,2024-01-30 17:21:19,15.08847307,0.0001348,53.217,186.3307,65.6131,294.5001,0.00013982,1.938e-05,0.0,0 STARLINK-5210,1 54082U 22136AH  24030.72314125  .00001938  00000-0  13982-3 0  9994,2 54082  53.2170 186.3307 0001348  65.6131 294.5001 15.08847307 71377,6917.858,95.437,540.656,538.791,0.0
54082.0,STARLINK-5210,PAYLOAD,2024-02-01 18:38:16,15.08849356,0.0001583,53.2175,177.1132,60.6984,299.4167,-1.4045e-05,-5.12e-06,0.0,0 STARLINK-5210,1 54082U 22136AH  24032.77658274 -.00000512  00000-0 -14045-4 0  9998,2 54082  53.2175 177.1132 0001583  60.6984 299.4167 15.08849356 71685,6917.852,95.437,540.812,538.622,0.0
54082.0,STARLINK-5210,PAYLOAD,2024-02-02 13:42:54,15.08840857,0.0001493,53.2176,173.5433,68.6741,291.441,5.0512e-05,5.16e-06,0.0,0 STARLINK-5210,1 54082U 22136AH  24033.57146476  .00000516  00000-0  50512-4 0  9994,2 54082  53.2176 173.5433 0001493  68.6741 291.4410 15.08840857 71320,6917.878,95.438,540.776,538.71,0.0
54082.0,STARLINK-5210,PAYLOAD,2024-02-02 16:53:40,15.08844459,0.0001569,53.2177,172.9498,64.9138,295.2017,7.7442e-05,9.45e-06,0.0,0 STARLINK-5210,1 54082U 22136AH  24033.70394175  .00000945  00000-0  77442-4 0  9997,2 54082  53.2177 172.9498 0001569  64.9138 295.2017 15.08844459 71347,6917.867,95.437,540.817,538.646,0.0
54082.0,STARLINK-5210,PAYLOAD,2024-02-03 08:47:31,15.08839072,0.0001335,53.2186,169.9771,65.729,294.3841,2.8307e-05,1.63e-06,0.0,0 STARLINK-5210,1 54082U 22136AH  24034.36634163  .00000163  00000-0  28307-4 0  9992,2 54082  53.2186 169.9771 0001335  65.7290 294.3841 15.08839072 71920,6917.883,95.438,540.672,538.825,0.0
54082.0,STARLINK-5210,PAYLOAD,2024-02-03 13:33:41,15.08839195,0.0001451,53.2183,169.0853,63.7868,296.3273,3.5216e-05,2.73e-06,0.0,0 STARLINK-5210,1 54082U 22136AH  24034.56506176  .00000273  00000-0  35216-4 0  9995,2 54082  53.2183 169.0853 0001451  63.7868 296.3273 15.08839195 71474,6917.883,95.438,540.752,538.744,0.0
54082.0,STARLINK-5210,PAYLOAD,2024-02-03 18:19:50,15.08845074,0.0001397,53.2181,168.1911,68.2826,291.8315,8.8805e-05,1.126e-05,0.0,0 STARLINK-5210,1 54082U 22136AH  24034.76377574  .00001126  00000-0  88805-4 0  9995,2 54082  53.2181 168.1911 0001397  68.2826 291.8315 15.08845074 71986,6917.865,95.437,540.696,538.763,0.0
54082.0,STARLINK-5210,PAYLOAD,2024-02-04 11:49:05,15.0884544,0.0001539,53.219,164.9197,107.1538,252.9622,-5.6981e-05,-1.195e-05,0.0,0 STARLINK-5210,1 54082U 22136AH  24035.49241996 -.00001195  00000-0 -56981-4 0  9992,2 54082  53.2190 164.9197 0001539 107.1538 252.9622 15.08845440 72096,6917.864,95.437,540.793,538.664,0.0
54082.0,STARLINK-5210,PAYLOAD,2024-02-04 13:24:28,15.08845504,0.0001632,53.2188,164.6227,120.4553,239.66,-5.9033e-05,-1.228e-05,0.0,0 STARLINK-5210,1 54082U 22136AH  24035.55865909 -.00001228  00000-0 -59033-4 0  9993,2 54082  53.2188 164.6227 0001632 120.4553 239.6600 15.08845504 71620,6917.864,95.437,540.858,538.6,0.0
54082.0,STARLINK-5210,PAYLOAD,2024-02-04 18:10:37,15.08848313,0.0001453,53.2183,163.7281,96.3058,263.81,-5.8028e-06,-3.8e-06,0.0,0 STARLINK-5210,1 54082U 22136AH  24035.75737574 -.00000380  00000-0 -58028-5 0  9993,2 54082  53.2183 163.7281 0001453  96.3058 263.8100 15.08848313 71655,6917.855,95.437,540.725,538.715,0.0
54082.0,STARLINK-5210,PAYLOAD,2024-02-05 14:50:38,15.08843585,0.0001401,53.2182,159.8644,92.4974,267.6179,5.7368e-05,6.25e-06,0.0,0 STARLINK-5210,1 54082U 22136AH  24036.61849720  .00000625  00000-0  57368-4 0  9991,2 54082  53.2182 159.8644 0001401  92.4974 267.6179 15.08843585 71788,6917.869,95.437,540.704,538.765,0.0
54082.0,STARLINK-5210,PAYLOAD,2024-02-06 11:30:39,15.08839354,0.0001335,53.2162,155.9997,78.024,282.0902,-1.6466e-05,-5.5e-06,0.0,0 STARLINK-5210,1 54082U 22136AH  24037.47962370 -.00000550  00000-0 -16466-4 0  9996,2 54082  53.2162 155.9997 0001335  78.0240 282.0902 15.08839354 72398,6917.882,95.438,540.671,538.824,0.0
54082.0,STARLINK-5210,PAYLOAD,2024-02-06 13:06:02,15.08840237,0.0001339,53.2163,155.7022,79.8209,280.2934,-9.7068e-06,-4.42e-06,0.0,0 STARLINK-5210,1 54082U 22136AH  24037.54586282 -.00000442  00000-0 -97068-5 0  9996,2 54082  53.2163 155.7022 0001339  79.8209 280.2934 15.08840237 71929,6917.88,95.438,540.671,538.818,0.0
54082.0,STARLINK-5210,PAYLOAD,2024-02-07 11:21:27,15.08832982,0.0001429,53.2168,151.5396,78.8424,281.2729,-2.6121e-05,-7.04e-06,0.0,0 STARLINK-5210,1 54082U 22136AH  24038.47323127 -.00000704  00000-0 -26121-4 0  9998,2 54082  53.2168 151.5396 0001429  78.8424 281.2729 15.08832982 72540,6917.902,95.438,540.755,538.778,0.0
54082.0,STARLINK-5210,PAYLOAD,2024-02-07 14:32:13,15.08834235,0.0001463,53.2167,150.9459,85.6288,274.4871,-9.689e-07,-3.03e-06,0.0,0 STARLINK-5210,1 54082U 22136AH  24038.60570986 -.00000303  00000-0 -96890-6 0  9997,2 54082  53.2167 150.9459 0001463  85.6288 274.4871 15.08834235 72088,6917.898,95.438,540.775,538.751,0.0
54082.0,STARLINK-5210,PAYLOAD,2024-02-08 14:22:59,15.08852478,0.0001558,53.2173,146.4863,97.1455,262.9714,8.3326e-05,1.039e-05,0.0,0 STARLINK-5210,1 54082U 22136AH  24039.59929855  .00001039  00000-0  83326-4 0  9992,2 54082  53.2173 146.4863 0001558  97.1455 262.9714 15.08852478 72237,6917.842,95.437,540.785,538.629,0.0
54082.0,STARLINK-5210,PAYLOAD,2024-02-09 12:38:24,15.08836445,0.0002171,53.218,142.3241,62.6346,297.4867,8.6904e-05,1.095e-05,0.0,0 STARLINK-5210,1 54082U 22136AH  24040.52667281  .00001095  00000-0  86904-4 0  9996,2 54082  53.2180 142.3241 0002171  62.6346 297.4867 15.08836445 72371,6917.891,95.438,541.258,538.254,0.0
54082.0,STARLINK-5210,PAYLOAD,2024-02-10 14:04:35,15.08814922,0.0001994,53.2181,137.5564,72.4252,287.6958,0.00032811,4.934e-05,0.0,0 STARLINK-5210,1 54082U 22136AH  24041.58651687  .00004934  00000-0  32811-3 0  9998,2 54082  53.2181 137.5564 0001994  72.4252 287.6958 15.08814922 72539,6917.957,95.439,541.201,538.443,0.0
54082.0,STARLINK-5210,PAYLOAD,2024-02-10 15:39:57,15.08855228,0.0001913,53.2181,137.2564,70.2842,289.8356,-0.00018235,-3.19e-05,0.0,0 STARLINK-5210,1 54082U 22136AH  24041.65274820 -.00003190  00000-0 -18235-3 0  9995,2 54082  53.2181 137.2564 0001913  70.2842 289.8356 15.08855228 73023,6917.834,95.437,541.022,538.375,0.0
54082.0,STARLINK-5210,PAYLOAD,2024-02-11 12:19:57,15.08840392,0.00019,53.2171,133.4035,113.3752,246.744,9.8727e-05,1.283e-05,0.0,0 STARLINK-5210,1 54082U 22136AH  24042.51386505  .00001283  00000-0  98727-4 0  9999,2 54082  53.2171 133.4035 0001900 113.3752 246.7440 15.08840392 73154,6917.879,95.438,541.059,538.43,0.0
54082.0,STARLINK-5210,PAYLOAD,2024-02-12 12:10:44,15.08849863,0.0001699,53.2174,128.9436,83.5285,276.5901,9.7369e-05,1.262e-05,0.0,0 STARLINK-5210,1 54082U 22136AH  24043.50745922  .00001262  00000-0  97369-4 0  9999,2 54082  53.2174 128.9436 0001699  83.5285 276.5901 15.08849863 72823,6917.85,95.437,540.891,538.54,0.0
54082.0,STARLINK-5210,PAYLOAD,2024-02-12 15:21:30,15.08851921,0.0001642,53.2175,128.3391,82.6483,277.4695,0.00011159,1.489e-05,0.0,0 STARLINK-5210,1 54082U 22136AH  24043.63993565  .00001489  00000-0  11159-3 0  9994,2 54082  53.2175 128.3391 0001642  82.6483 277.4695 15.08851921 73320,6917.844,95.437,540.845,538.573,0.0
54082.0,STARLINK-5210,PAYLOAD,2024-02-13 12:01:32,15.08834243,0.0001625,53.2178,124.4811,93.345,266.7728,-8.1095e-05,-1.578e-05,0.0,0 STARLINK-5210,1 54082U 22136AH  24044.50107474 -.00001578  00000-0 -81095-4 0  9995,2 54082  53.2178 124.4811 0001625  93.3450 266.7728 15.08834243 73451,6917.898,95.438,540.887,538.639,0.0
54082.0,STARLINK-5210,PAYLOAD,2024-02-14 11:52:18,15.08855646,0.0001483,53.2169,120.0205,98.5585,261.5575,5.4582e-05,5.81e-06,0.0,0 STARLINK-5210,1 54082U 22136AH  24045.49465898  .00000581  00000-0  54582-4 0  9993,2 54082  53.2169 120.0205 0001483  98.5585 261.5575 15.08855646 73608,6917.833,95.437,540.723,538.672,0.0
54082.0,STARLINK-5210,PAYLOAD,2024-02-14 21:24:37,15.08847429,0.0001533,53.2171,118.2346,82.0492,278.0674,-4.5809e-05,-1.017e-05,0.0,0 STARLINK-5210,1 54082U 22136AH  24045.89210464 -.00001017  00000-0 -45809-4 0  9993,2 54082  53.2171 118.2346 0001533  82.0492 278.0674 15.08847429 73183,6917.858,95.437,540.783,538.662,0.0
54082.0,STARLINK-5210,PAYLOAD,2024-02-15 11:43:07,15.08831466,0.000166,53.2178,115.5594,100.7242,259.3937,0.00011642,1.565e-05,0.0,0 STARLINK-5210,1 54082U 22136AH  24046.48827714  .00001565  00000-0  11642-3 0  9994,2 54082  53.2178 115.5594 0001660 100.7242 259.3937 15.08831466 73758,6917.906,95.438,540.92,538.623,0.0
54082.0,STARLINK-5210,PAYLOAD,2024-02-15 13:18:30,15.08834932,0.0001655,53.2181,115.2633,99.5321,260.5859,0.00015104,2.116e-05,0.0,0 STARLINK-5210,1 54082U 22136AH  24046.55451502  .00002116  00000-0  15104-3 0  9990,2 54082  53.2181 115.2633 0001655  99.5321 260.5859 15.08834932 73286,6917.896,95.438,540.906,538.616,0.0
54082.0,STARLINK-5210,PAYLOAD,2024-02-15 21:15:25,15.08836452,0.0001468,53.2171,113.7743,92.8212,267.2948,0.00014345,1.996e-05,0.0,0 STARLINK-5210,1 54082U 22136AH  24046.88571549  .00001996  00000-0  14345-3 0  9991,2 54082  53.2171 113.7743 0001468  92.8212 267.2948 15.08836452 73335,6917.891,95.438,540.772,538.741,0.0
54082.0,STARLINK-5210,PAYLOAD,2024-02-16 11:33:53,15.08843308,0.0001526,53.2184,111.0997,98.5792,261.5374,0.00011018,1.466e-05,0.0,0 STARLINK-5210,1 54082U 22136AH  24047.48187310  .00001466  00000-0  11018-3 0  9993,2 54082  53.2184 111.0997 0001526  98.5792 261.5374 15.08843308 73903,6917.87,95.437,540.791,538.68,0.0
54082.0,STARLINK-5210,PAYLOAD,2024-02-17 03:27:45,15.08832587,0.0001678,53.2184,108.1255,99.9762,260.142,0.00015277,2.144e-05,0.0,0 STARLINK-5210,1 54082U 22136AH  24048.14427934  .00002144  00000-0  15277-3 0  9991,2 54082  53.2184 108.1255 0001678  99.9762 260.1420 15.08832587 74003,6917.903,95.438,540.929,538.607,0.0
